[{"OBJECT_NAME":"SDA_1667","OBJECT_ID":"2025-230D","EPOCH":"2026-03-09T17:13:30.645984","MEAN_MOTION":13.84901461,"ECCENTRICITY":0.00041039,"INCLINATION":81.2986,"RA_OF_ASC_NODE":303.9273,"ARG_OF_PERICENTER":81.7759,"MEAN_ANOMALY":278.3863,"EPHEMERIS_TYPE":0,"CLASSIFICATION_TYPE":"U","NORAD_CAT_ID":65977,"ELEMENT_SET_NO":999,"REV_AT_EPOCH":2004,"BSTAR":0.00023812804,"MEAN_MOTION_DOT":2.81e-6,"MEAN_MOTION_DDOT":0},{"OBJECT_NAME":"COSMOS 928","OBJECT_ID":"1977-064A","EPOCH":"2026-03-09T21:22:10.661088","MEAN_MOTION":13.7689649,"ECCENTRICITY":0.00365922,"INCLINATION":82.9672,"RA_OF_ASC_NODE":211.5145,"ARG_OF_PERICENTER":283.7014,"MEAN_ANOMALY":76.007,"EPHEMERIS_TYPE":0,"CLASSIFICATION_TYPE":"U","NORAD_CAT_ID":10141,"ELEMENT_SET_NO":999,"REV_AT_EPOCH":44383,"BSTAR":7.6754916e-5,"MEAN_MOTION_DOT":9.1e-7,"MEAN_MOTION_DDOT":0}]
